{"type": "FeatureCollection", "features": [{"type": "Feature", "geometry": {"type": "Polygon", "coordinates": [[[43.64010838820118, 56.33502776628964], [43.64012379344659, 56.33459907206435], [43.640826272637554, 56.33459053228984], [43.64078930004856, 56.33495944880738], [43.64010838820118, 56.33502776628964]]]}, "properties": {"seg_num": 0, "id": "field", "geometry_": null, "fill_": {"color_": "rgba(170,170,17,0.2)"}, "image_": {"opacity_": 1, "rotateWithView_": false, "rotation_": 0, "scale_": 1, "scaleArray_": [1, 1], "displacement_": [0, 0], "canvas_": {}, "hitDetectionCanvas_": null, "fill_": {"color_": "rgba(170,170,17,0.2)"}, "origin_": [0, 0], "points_": null, "radius_": 8, "angle_": 0, "stroke_": {"color_": "#aaaa11", "lineDash_": null, "width_": 8}, "size_": [24, 24], "renderOptions_": {"strokeStyle": "#aaaa11", "strokeWidth": 8, "size": 24, "lineDash": null, "lineJoin": "round", "miterLimit": 10}}, "renderer_": null, "hitDetectionRenderer_": null, "stroke_": {"color_": "#aaaa11", "lineDash_": null, "width_": 8}, "text_": null}}, {"type": "Feature", "geometry": {"type": "Polygon", "coordinates": [[[43.640099145053945, 56.33525833688924], [43.640099145053945, 56.33515756916893], [43.640786218999494, 56.335087543986276], [43.64076773270499, 56.33518318810613], [43.640099145053945, 56.33525833688924]]]}, "properties": {"seg_num": 0, "id": "parking", "geometry_": null, "fill_": {"color_": "rgba(255,17,17,0.2)"}, "image_": {"opacity_": 1, "rotateWithView_": false, "rotation_": 0, "scale_": 1, "scaleArray_": [1, 1], "displacement_": [0, 0], "canvas_": {}, "hitDetectionCanvas_": null, "fill_": {"color_": "rgba(255,17,17,0.2)"}, "origin_": [0, 0], "points_": null, "radius_": 8, "angle_": 0, "stroke_": {"color_": "#ff1111", "lineDash_": null, "width_": 8}, "size_": [24, 24], "renderOptions_": {"strokeStyle": "#ff1111", "strokeWidth": 8, "size": 24, "lineDash": null, "lineJoin": "round", "miterLimit": 10}}, "renderer_": null, "hitDetectionRenderer_": null, "stroke_": {"color_": "#ff1111", "lineDash_": null, "width_": 8}, "text_": null}}, {"type": "Feature", "geometry": {"type": "Polygon", "coordinates": [[[43.640847839981156, 56.33482964525419], [43.64086016417748, 56.3347015492096], [43.64111281020231, 56.33469813330922], [43.64108199971148, 56.334826229365234], [43.640847839981156, 56.33482964525419]]]}, "properties": {"seg_num": 0, "id": "refueling", "geometry_": null, "fill_": {"color_": "rgba(17,17,17,0.2)"}, "image_": {"opacity_": 1, "rotateWithView_": false, "rotation_": 0, "scale_": 1, "scaleArray_": [1, 1], "displacement_": [0, 0], "canvas_": {}, "hitDetectionCanvas_": null, "fill_": {"color_": "rgba(17,17,17,0.2)"}, "origin_": [0, 0], "points_": null, "radius_": 8, "angle_": 0, "stroke_": {"color_": "#111111", "lineDash_": null, "width_": 8}, "size_": [24, 24], "renderOptions_": {"strokeStyle": "#111111", "strokeWidth": 8, "size": 24, "lineDash": null, "lineJoin": "round", "miterLimit": 10}}, "renderer_": null, "hitDetectionRenderer_": null, "stroke_": {"color_": "#111111", "lineDash_": null, "width_": 8}, "text_": null}}, {"type": "Feature", "geometry": {"type": "Polygon", "coordinates": [[[43.63984033693096, 56.334860388240884], [43.63984649902912, 56.33469813330922], [43.64006217246495, 56.33469813330922], [43.640037524072284, 56.334856972354686], [43.63984033693096, 56.334860388240884]]]}, "properties": {"seg_num": 0, "id": "loading", "geometry_": null, "fill_": {"color_": "rgba(17,255,17,0.2)"}, "image_": {"opacity_": 1, "rotateWithView_": false, "rotation_": 0, "scale_": 1, "scaleArray_": [1, 1], "displacement_": [0, 0], "canvas_": {}, "hitDetectionCanvas_": null, "fill_": {"color_": "rgba(17,255,17,0.2)"}, "origin_": [0, 0], "points_": null, "radius_": 8, "angle_": 0, "stroke_": {"color_": "#11ff11", "lineDash_": null, "width_": 8}, "size_": [24, 24], "renderOptions_": {"strokeStyle": "#11ff11", "strokeWidth": 8, "size": 24, "lineDash": null, "lineJoin": "round", "miterLimit": 10}}, "renderer_": null, "hitDetectionRenderer_": null, "stroke_": {"color_": "#11ff11", "lineDash_": null, "width_": 8}, "text_": null}}, {"type": "Feature", "geometry": {"type": "LineString", "coordinates": [[43.63992044420712, 56.33510803917497], [43.64022854911544, 56.33508412812043], [43.640552059269176, 56.335055093248286], [43.64083551578482, 56.33502435041842], [43.640998811386225, 56.33498165200251]]}, "properties": {"seg_num": 0, "id": "moving", "geometry_": null, "fill_": {"color_": "rgba(17,17,255,0.2)"}, "image_": {"opacity_": 1, "rotateWithView_": false, "rotation_": 0, "scale_": 1, "scaleArray_": [1, 1], "displacement_": [0, 0], "canvas_": {}, "hitDetectionCanvas_": null, "fill_": {"color_": "rgba(17,17,255,0.2)"}, "origin_": [0, 0], "points_": null, "radius_": 8, "angle_": 0, "stroke_": {"color_": "#1111ff", "lineDash_": null, "width_": 8}, "size_": [24, 24], "renderOptions_": {"strokeStyle": "#1111ff", "strokeWidth": 8, "size": 24, "lineDash": null, "lineJoin": "round", "miterLimit": 10}}, "renderer_": null, "hitDetectionRenderer_": null, "stroke_": {"color_": "#1111ff", "lineDash_": null, "width_": 8}, "text_": null}}, {"type": "Feature", "geometry": {"type": "LineString", "coordinates": [[43.640980325091725, 56.33474253999066], [43.6409864871899, 56.334860388240884], [43.640992649288066, 56.33495432499129]]}, "properties": {"seg_num": 0, "id": "moving", "geometry_": null, "fill_": {"color_": "rgba(17,17,255,0.2)"}, "image_": {"opacity_": 1, "rotateWithView_": false, "rotation_": 0, "scale_": 1, "scaleArray_": [1, 1], "displacement_": [0, 0], "canvas_": {}, "hitDetectionCanvas_": null, "fill_": {"color_": "rgba(17,17,255,0.2)"}, "origin_": [0, 0], "points_": null, "radius_": 8, "angle_": 0, "stroke_": {"color_": "#1111ff", "lineDash_": null, "width_": 8}, "size_": [24, 24], "renderOptions_": {"strokeStyle": "#1111ff", "strokeWidth": 8, "size": 24, "lineDash": null, "lineJoin": "round", "miterLimit": 10}}, "renderer_": null, "hitDetectionRenderer_": null, "stroke_": {"color_": "#1111ff", "lineDash_": null, "width_": 8}, "text_": null}}, {"type": "Feature", "geometry": {"type": "LineString", "coordinates": [[43.639914282108954, 56.33506704878653], [43.639929687354375, 56.33495261705244], [43.63995125469795, 56.33477499099445]]}, "properties": {"seg_num": 0, "id": "moving", "geometry_": null, "fill_": {"color_": "rgba(17,17,255,0.2)"}, "image_": {"opacity_": 1, "rotateWithView_": false, "rotation_": 0, "scale_": 1, "scaleArray_": [1, 1], "displacement_": [0, 0], "canvas_": {}, "hitDetectionCanvas_": null, "fill_": {"color_": "rgba(17,17,255,0.2)"}, "origin_": [0, 0], "points_": null, "radius_": 8, "angle_": 0, "stroke_": {"color_": "#1111ff", "lineDash_": null, "width_": 8}, "size_": [24, 24], "renderOptions_": {"strokeStyle": "#1111ff", "strokeWidth": 8, "size": 24, "lineDash": null, "lineJoin": "round", "miterLimit": 10}}, "renderer_": null, "hitDetectionRenderer_": null, "stroke_": {"color_": "#1111ff", "lineDash_": null, "width_": 8}, "text_": null}}]}